NORAD_CAT_ID,OBJECT_NAME,OBJECT_TYPE,EPOCH,MEAN_MOTION,ECCENTRICITY,INCLINATION,RA_OF_ASC_NODE,ARG_OF_PERICENTER,MEAN_ANOMALY,BSTAR,MEAN_MOTION_DOT,MEAN_MOTION_DDOT,TLE_LINE0,TLE_LINE1,TLE_LINE2,SEMIMAJOR_AXIS,PERIOD,APOGEE,PERIGEE,DECAYED
53033.0,STARLINK-4167,PAYLOAD,2023-05-21 17:53:57,15.08830461,4.51e-05,53.216,346.2936,94.0441,266.0603,-4.9852e-05,-1.081e-05,0.0,0 STARLINK-4167,1 53033U 22076AZ  23141.74580329 -.00001081  00000-0 -49852-4 0  9994,2 53033  53.2160 346.2936 0000451  94.0441 266.0603 15.08830461 48694,6917.91,95.438,540.087,539.463,0.0
53033.0,STARLINK-4167,PAYLOAD,2023-05-21 22:40:07,15.0882788,5.84e-05,53.2157,345.4018,100.68,259.4257,-7.8548e-05,-1.537e-05,0.0,0 STARLINK-4167,1 53033U 22076AZ  23141.94452569 -.00001537  00000-0 -78548-4 0  9990,2 53033  53.2157 345.4018 0000584 100.6800 259.4257 15.08827880 49190,6917.917,95.438,540.186,539.378,0.0
53033.0,STARLINK-4167,PAYLOAD,2023-05-22 12:58:35,15.08834408,6.91e-05,53.2172,342.7236,82.2925,277.8145,5.1481e-05,5.32e-06,0.0,0 STARLINK-4167,1 53033U 22076AZ  23142.54068862  .00000532  00000-0  51481-4 0  9995,2 53033  53.2172 342.7236 0000691  82.2925 277.8145 15.08834408 48813,6917.897,95.438,540.241,539.284,0.0
53033.0,STARLINK-4167,PAYLOAD,2023-05-22 19:20:07,15.08843077,7.18e-05,53.2166,341.5353,79.4812,280.6261,0.00029225,4.367e-05,0.0,0 STARLINK-4167,1 53033U 22076AZ  23142.80564694  .00004367  00000-0  29225-3 0  9998,2 53033  53.2166 341.5353 0000718  79.4812 280.6261 15.08843077 49326,6917.871,95.437,540.233,539.239,0.0
53033.0,STARLINK-4167,PAYLOAD,2023-05-23 03:17:03,15.08833015,8.27e-05,53.2157,340.0484,78.9685,281.14,0.00048706,7.471e-05,0.0,0 STARLINK-4167,1 53033U 22076AZ  23143.13685141  .00007471  00000-0  48706-3 0  9990,2 53033  53.2157 340.0484 0000827  78.9685 281.1400 15.08833015 49375,6917.902,95.438,540.339,539.195,0.0
53033.0,STARLINK-4167,PAYLOAD,2023-05-23 19:10:54,15.08859869,7.62e-05,53.2162,337.0742,78.7798,281.328,0.00079774,0.00012438,0.0,0 STARLINK-4167,1 53033U 22076AZ  23143.79924457  .00012438  00000-0  79774-3 0  9996,2 53033  53.2162 337.0742 0000762  78.7798 281.3280 15.08859869 49479,6917.82,95.436,540.212,539.158,0.0
53033.0,STARLINK-4167,PAYLOAD,2023-05-23 22:21:40,15.08861715,7.33e-05,53.2163,336.4794,78.5281,281.5793,0.00085362,0.00013332,0.0,0 STARLINK-4167,1 53033U 22076AZ  23143.93172334  .00013332  00000-0  85362-3 0  9995,2 53033  53.2163 336.4794 0000733  78.5281 281.5793 15.08861715 49028,6917.814,95.436,540.186,539.172,0.0
53033.0,STARLINK-4167,PAYLOAD,2023-05-24 03:07:50,15.08845159,0.0001006,53.2163,335.5872,64.6606,295.449,0.00020542,2.983e-05,0.0,0 STARLINK-4167,1 53033U 22076AZ  23144.13044606  .00002983  00000-0  20542-3 0  9997,2 53033  53.2163 335.5872 0001006  64.6606 295.4490 15.08845159 49523,6917.865,95.437,540.426,539.034,0.0
53033.0,STARLINK-4167,PAYLOAD,2023-05-24 15:50:55,15.08850731,7.92e-05,53.2163,333.208,93.7242,266.384,0.00050926,7.829e-05,0.0,0 STARLINK-4167,1 53033U 22076AZ  23144.66036378  .00007829  00000-0  50926-3 0  9995,2 53033  53.2163 333.2080 0000792  93.7242 266.3840 15.08850731 49134,6917.848,95.437,540.26,539.165,0.0
53033.0,STARLINK-4167,PAYLOAD,2023-05-25 17:17:05,15.08856717,8.05e-05,53.217,328.4504,106.3232,253.7849,0.00098516,0.00015433,0.0,0 STARLINK-4167,1 53033U 22076AZ  23145.72020360  .00015433  00000-0  98516-3 0  9994,2 53033  53.2170 328.4504 0000805 106.3232 253.7849 15.08856717 49762,6917.829,95.436,540.251,539.137,0.0
53033.0,STARLINK-4167,PAYLOAD,2023-05-26 12:21:43,15.08845223,0.0001169,53.217,324.8817,110.3247,249.7871,0.00073904,0.00011495,0.0,0 STARLINK-4167,1 53033U 22076AZ  23146.51508612  .00011495  00000-0  73904-3 0  9991,2 53033  53.2170 324.8817 0001169 110.3247 249.7871 15.08845223 49416,6917.864,95.437,540.538,538.921,0.0
53033.0,STARLINK-4167,PAYLOAD,2023-05-26 18:43:16,15.08838427,9.18e-05,53.2169,323.6915,113.6304,246.4785,6.2163e-05,7.02e-06,0.0,0 STARLINK-4167,1 53033U 22076AZ  23146.78004659  .00000702  00000-0  62163-4 0  9997,2 53033  53.2169 323.6915 0000918 113.6304 246.4785 15.08838427 49923,6917.885,95.438,540.385,539.115,0.0
53033.0,STARLINK-4167,PAYLOAD,2023-05-26 21:54:02,15.08838205,9.12e-05,53.2169,323.0969,113.8937,246.215,5.0005e-05,5.08e-06,0.0,0 STARLINK-4167,1 53033U 22076AZ  23146.91252698  .00000508  00000-0  50005-4 0  9996,2 53033  53.2169 323.0969 0000912 113.8937 246.2150 15.08838205 49472,6917.886,95.438,540.382,539.12,0.0
53033.0,STARLINK-4167,PAYLOAD,2023-05-27 18:34:03,15.08839718,7.41e-05,53.2171,319.2326,103.3249,256.7826,0.00010534,1.389e-05,0.0,0 STARLINK-4167,1 53033U 22076AZ  23147.77364806  .00001389  00000-0  10534-3 0  9996,2 53033  53.2171 319.2326 0000741 103.3249 256.7826 15.08839718 49600,6917.881,95.438,540.259,539.234,0.0
53033.0,STARLINK-4167,PAYLOAD,2023-05-28 04:06:22,15.08840081,7.21e-05,53.2171,317.4491,101.4144,258.6929,0.00012701,1.734e-05,0.0,0 STARLINK-4167,1 53033U 22076AZ  23148.17108854  .00001734  00000-0  12701-3 0  9992,2 53033  53.2171 317.4491 0000721 101.4144 258.6929 15.08840081 50134,6917.88,95.438,540.244,539.246,0.0
53033.0,STARLINK-4167,PAYLOAD,2023-05-28 20:00:13,15.088462,7.57e-05,53.217,314.4755,101.4747,258.633,0.00017242,2.458e-05,0.0,0 STARLINK-4167,1 53033U 22076AZ  23148.83348511  .00002458  00000-0  17242-3 0  9990,2 53033  53.2170 314.4755 0000757 101.4747 258.6330 15.08846200 49763,6917.861,95.437,540.25,539.203,0.0
53033.0,STARLINK-4167,PAYLOAD,2023-05-29 10:18:41,15.08837462,8.47e-05,53.2168,311.7994,89.0597,271.0492,0.00013425,1.849e-05,0.0,0 STARLINK-4167,1 53033U 22076AZ  23149.42965270  .00001849  00000-0  13425-3 0  9995,2 53033  53.2168 311.7994 0000847  89.0597 271.0492 15.08837462 50321,6917.888,95.438,540.339,539.167,0.0
53033.0,STARLINK-4167,PAYLOAD,2023-05-29 18:15:37,15.08838693,7.59e-05,53.2173,310.3127,86.2317,273.8762,5.2258e-05,5.44e-06,0.0,0 STARLINK-4167,1 53033U 22076AZ  23149.76085316  .00000544  00000-0  52258-4 0  9995,2 53033  53.2173 310.3127 0000759  86.2317 273.8762 15.08838693 49900,6917.884,95.438,540.274,539.224,0.0
53033.0,STARLINK-4167,PAYLOAD,2023-05-30 10:09:28,15.0884095,9.27e-05,53.217,307.3389,79.9601,280.1496,8.1275e-05,1.006e-05,0.0,0 STARLINK-4167,1 53033U 22076AZ  23150.42325145  .00001006  00000-0  81275-4 0  9992,2 53033  53.2170 307.3389 0000927  79.9601 280.1496 15.08840950 50002,6917.877,95.437,540.384,539.101,0.0
53033.0,STARLINK-4167,PAYLOAD,2023-05-30 14:55:38,15.0884165,9.18e-05,53.2171,306.4468,79.582,280.5276,8.4114e-05,1.051e-05,0.0,0 STARLINK-4167,1 53033U 22076AZ  23150.62197097  .00001051  00000-0  84114-4 0  9992,2 53033  53.2171 306.4468 0000918  79.5820 280.5276 15.08841650 50503,6917.875,95.437,540.375,539.105,0.0
53033.0,STARLINK-4167,PAYLOAD,2023-05-30 16:31:01,15.08844689,8.95e-05,53.2173,306.1495,78.6817,281.4276,3.3623e-05,2.48e-06,0.0,0 STARLINK-4167,1 53033U 22076AZ  23150.68821005  .00000248  00000-0  33623-4 0  9997,2 53033  53.2173 306.1495 0000895  78.6817 281.4276 15.08844689 50046,6917.866,95.437,540.35,539.112,0.0
53033.0,STARLINK-4167,PAYLOAD,2023-05-31 14:46:25,15.08842369,8e-05,53.2172,301.9865,77.08,283.0281,0.00012285,1.668e-05,0.0,0 STARLINK-4167,1 53033U 22076AZ  23151.61556767  .00001668  00000-0  12285-3 0  9998,2 53033  53.2172 301.9865 0000800  77.0800 283.0281 15.08842369 50182,6917.873,95.437,540.292,539.185,0.0
53033.0,STARLINK-4167,PAYLOAD,2023-05-31 16:21:48,15.08843559,7.51e-05,53.2171,301.6891,77.6541,282.4535,0.00013496,1.861e-05,0.0,0 STARLINK-4167,1 53033U 22076AZ  23151.68180651  .00001861  00000-0  13496-3 0  9990,2 53033  53.2171 301.6891 0000751  77.6541 282.4535 15.08843559 50660,6917.87,95.437,540.254,539.215,0.0
53033.0,STARLINK-4167,PAYLOAD,2023-06-01 09:51:02,15.08840906,0.0001015,53.2183,298.4186,82.5518,277.559,5.4778e-05,5.84e-06,0.0,0 STARLINK-4167,1 53033U 22076AZ  23152.41045036  .00000584  00000-0  54778-4 0  9999,2 53033  53.2183 298.4186 0001015  82.5518 277.5590 15.08840906 50306,6917.878,95.437,540.445,539.04,0.0
53033.0,STARLINK-4167,PAYLOAD,2023-06-02 09:41:50,15.08834176,5.3e-05,53.218,293.9575,76.2023,283.9028,2.4737e-05,1.06e-06,0.0,0 STARLINK-4167,1 53033U 22076AZ  23153.40405437  .00000106  00000-0  24737-4 0  9996,2 53033  53.2180 293.9575 0000530  76.2023 283.9028 15.08834176 50924,6917.898,95.438,540.13,539.397,0.0
53033.0,STARLINK-4167,PAYLOAD,2023-06-02 14:27:59,15.08835034,7.42e-05,53.2169,293.0655,85.606,274.5017,-4.577e-06,-3.6e-06,0.0,0 STARLINK-4167,1 53033U 22076AZ  23153.60277583 -.00000360  00000-0 -45770-5 0  9992,2 53033  53.2169 293.0655 0000742  85.6060 274.5017 15.08835034 50480,6917.896,95.438,540.274,539.247,0.0
53033.0,STARLINK-4167,PAYLOAD,2023-06-02 19:14:08,15.08841623,7.15e-05,53.2174,292.1719,89.8487,270.2587,-8.9829e-06,-4.31e-06,0.0,0 STARLINK-4167,1 53033U 22076AZ  23153.80149162 -.00000431  00000-0 -89829-5 0  9997,2 53033  53.2174 292.1719 0000715  89.8487 270.2587 15.08841623 50516,6917.875,95.437,540.235,539.246,0.0
53033.0,STARLINK-4167,PAYLOAD,2023-06-03 14:18:46,15.08835357,8.28e-05,53.2169,288.6035,99.3738,260.7347,5.901e-05,6.51e-06,0.0,0 STARLINK-4167,1 53033U 22076AZ  23154.59637674  .00000651  00000-0  59010-4 0  9994,2 53033  53.2169 288.6035 0000828  99.3738 260.7347 15.08835357 50639,6917.895,95.438,540.332,539.187,0.0
53033.0,STARLINK-4167,PAYLOAD,2023-06-03 15:54:09,15.08839348,7.47e-05,53.2174,288.3052,95.808,264.2997,5.6602e-05,6.13e-06,0.0,0 STARLINK-4167,1 53033U 22076AZ  23154.66261444  .00000613  00000-0  56602-4 0  9992,2 53033  53.2174 288.3052 0000747  95.8080 264.2997 15.08839348 51110,6917.882,95.438,540.264,539.231,0.0
53033.0,STARLINK-4167,PAYLOAD,2023-06-03 19:04:56,15.08840603,7.43e-05,53.2172,287.7108,95.5606,264.5471,6.8694e-05,8.06e-06,0.0,0 STARLINK-4167,1 53033U 22076AZ  23154.79509364  .00000806  00000-0  68694-4 0  9990,2 53033  53.2172 287.7108 0000743  95.5606 264.5471 15.08840603 50665,6917.879,95.438,540.258,539.23,0.0
